[{"OBJECT_NAME":"STARLINK-3692","OBJECT_ID":"2022-025C","EPOCH":"2026-03-09T04:09:32.813280","MEAN_MOTION":15.3018251,"ECCENTRICITY":0.00014023,"INCLINATION":53.1631,"RA_OF_ASC_NODE":15.9414,"ARG_OF_PERICENTER":86.2996,"MEAN_ANOMALY":273.8165,"EPHEMERIS_TYPE":0,"CLASSIFICATION_TYPE":"U","NORAD_CAT_ID":51958,"ELEMENT_SET_NO":999,"REV_AT_EPOCH":22109,"BSTAR":6.68828e-7,"MEAN_MOTION_DOT":-3.39e-6,"MEAN_MOTION_DDOT":0},{"OBJECT_NAME":"HAWK-11C","OBJECT_ID":"2024-247E","EPOCH":"2026-03-09T12:17:35.407968","MEAN_MOTION":15.2884802,"ECCENTRICITY":0.00059001,"INCLINATION":45.0045,"RA_OF_ASC_NODE":114.8762,"ARG_OF_PERICENTER":329.704,"MEAN_ANOMALY":30.3502,"EPHEMERIS_TYPE":0,"CLASSIFICATION_TYPE":"U","NORAD_CAT_ID":62381,"ELEMENT_SET_NO":999,"REV_AT_EPOCH":6774,"BSTAR":0.00033290115,"MEAN_MOTION_DOT":9.223e-5,"MEAN_MOTION_DDOT":0}]
